LEMUR-1                 
1 40044U 14033AL  26194.90421102  .00000797  00000+0  97231-4 0  9992
2 40044  97.7906 344.1214 0047876 352.2056   7.8410 14.85334693649438
LEMUR-2-GREENBERG       
1 42837U 17042N   26195.06726058  .00009723  00000+0  31565-3 0  9998
2 42837  97.3821  15.5850 0007190 263.7777  96.2646 15.32129917492509
LEMUR-2-ANDIS           
1 42838U 17042P   26194.96768590  .00013147  00000+0  37818-3 0  9996
2 42838  97.3674  15.7663 0007167 263.0855  96.9574 15.35893253492561
LEMUR-2-MONSON          
1 42839U 17042Q   26194.80759331  .00007810  00000+0  28219-3 0  9998
2 42839  97.4086  15.2572 0005239 251.8262 108.2408 15.28729745492232
LEMUR-2-FURIAUS         
1 42840U 17042R   26193.44556340  .00010642  00000+0  35675-3 0  9995
2 42840  97.3775  11.8672 0006239 340.6601  19.4403 15.31072029492076
LEMUR-2-PETERG          
1 42841U 17042S   26194.96784661  .00011532  00000+0  34182-3 0  9994
2 42841  97.3987  20.0635 0003225 225.2776 134.8205 15.35000836492541
LEMUR-2-DEMBITZ         
1 42842U 17042T   26195.03381088  .00009940  00000+0  33333-3 0  9997
2 42842  97.3822  16.4895 0005022 279.7285  80.3388 15.31088712492455
LEMUR-2-ZACHARY         
1 42845U 17042W   26195.08551992  .00032159  00000+0  52258-3 0  9993
2 42845  97.3571  27.3393 0002500 255.8073 104.2902 15.52645142493370
LEMUR-2-AMANDA-SVANTE   
1 48269U 21034B   26195.14781166  .00020602  00000+0  59060-3 0  9998
2 48269  97.5756 274.1748 0004547 145.2085 214.9456 15.35919585285195
LEMUR-2-SPECIAL-K       
1 48273U 21034F   26195.18957894  .00183270  00000+0  12453-2 0  9995
2 48273  97.5645 284.1935 0006229 216.1059 143.9785 15.74373593285927
LEMUR-2-EMBRIONOVIS     
1 56970U 23084AQ  26194.94398780  .00008615  00000+0  23099-3 0  9999
2 56970  97.6318 340.1875 0008216 211.0081 149.0679 15.38209211171794
LEMUR-2-DEVERILL-M-T    
1 57391U 23100F   26195.12704063  .00016951  00000+0  41261-3 0  9995
2 57391  99.4457 241.6936 0004704 301.5857  58.4923 15.41060007165399
LEMUR-2-BASS            
1 58259U 23174D   26195.17880255  .00011009  00000+0  24342-3 0  9993
2 58259  97.3851 280.2837 0007743  81.4518 278.7607 15.43973523149522
LEMUR-2-JK0903EM1407    
1 58336U 23174CJ  26194.76586292  .00016696  00000+0  26895-3 0  9999
2 58336  97.3927 286.0103 0003751  38.6610 321.4910 15.53017919149852
LEMUR-2-MJR092620       
1 58340U 23174CN  26195.22495029  .00012057  00000+0  25020-3 0  9999
2 58340  97.3983 285.7696 0005385  33.6493 326.5097 15.45841290149828
LEMUR-2-NIMBUS2000      
1 58899U 24022A   26195.09975970  .00013760  00000+0  33421-3 0  9990
2 58899  97.4081  45.4558 0008856  32.3719 327.8069 15.41087584136416
